start=new Date('2022-01-19T00:00:00.000Z').valueOf();
sats=[{"RCS_SIZE":"LARGE","MEAN_MOTION_DDOT":"0.0000000000000","TIME_SYSTEM":"UTC","CENTER_NAME":"EARTH","REF_FRAME":"TEME","TLE_LINE1":"1 47128U 20088G   22018.87945629 -.00000555  00000-0 -18306-4 0  9992","ARG_OF_PERICENTER":"59.8212","PERIOD":"95.593","APOAPSIS":"549.820","INCLINATION":"53.0552","MEAN_MOTION_DOT":"-0.00000555","REV_AT_EPOCH":"6440","EPOCH":"2022-01-18T21:06:25.023456","DECAY_DATE":null,"MEAN_ANOMALY":"300.3141","EPHEMERIS_TYPE":"0","MEAN_MOTION":"15.06379177","OBJECT_NAME":"STARLINK-1837","OBJECT_TYPE":"PAYLOAD","RA_OF_ASC_NODE":"223.9079","LAUNCH_DATE":"2020-11-25","ECCENTRICITY":"0.00036720","FILE":"3276875","NORAD_CAT_ID":"47128","CLASSIFICATION_TYPE":"U","SITE":"AFETR","GP_ID":"194155477","MEAN_ELEMENT_THEORY":"SGP4","COUNTRY_CODE":"US","SEMIMAJOR_AXIS":"6925.412","OBJECT_ID":"2020-088G","ELEMENT_SET_NO":"999","BSTAR":"-0.00001830600000","PERIAPSIS":"544.734","TLE_LINE2":"2 47128  53.0552 223.9079 0003672  59.8212 300.3141 15.06379177 64403"},{"REF_FRAME":"TEME","TIME_SYSTEM":"UTC","MEAN_MOTION_DDOT":"0.0000000000000","CENTER_NAME":"EARTH","RCS_SIZE":"LARGE","TLE_LINE1":"1 47129U 20088H   22018.90800331  .00000251  00000-0  35761-4 0  9992","EPOCH":"2022-01-18T21:47:31.485984","REV_AT_EPOCH":"6427","MEAN_MOTION_DOT":"0.00000251","INCLINATION":"53.0535","APOAPSIS":"548.778","PERIOD":"95.593","ARG_OF_PERICENTER":"68.0171","OBJECT_TYPE":"PAYLOAD","OBJECT_NAME":"STARLINK-1838","EPHEMERIS_TYPE":"0","MEAN_MOTION":"15.06391976","MEAN_ANOMALY":"292.1054","DECAY_DATE":null,"LAUNCH_DATE":"2020-11-25","ECCENTRICITY":"0.00022230","RA_OF_ASC_NODE":"233.7803","CLASSIFICATION_TYPE":"U","NORAD_CAT_ID":"47129","FILE":"3276875","SEMIMAJOR_AXIS":"6925.373","COUNTRY_CODE":"US","MEAN_ELEMENT_THEORY":"SGP4","SITE":"AFETR","GP_ID":"194155211","TLE_LINE2":"2 47129  53.0535 233.7803 0002223  68.0171 292.1054 15.06391976 64273","PERIAPSIS":"545.699","BSTAR":"0.00003576100000","ELEMENT_SET_NO":"999","OBJECT_ID":"2020-088H"},{"RA_OF_ASC_NODE":"253.8472","ECCENTRICITY":"0.00017810","LAUNCH_DATE":"2020-11-25","NORAD_CAT_ID":"47130","CLASSIFICATION_TYPE":"U","FILE":"3276875","SEMIMAJOR_AXIS":"6925.428","GP_ID":"194153981","SITE":"AFETR","MEAN_ELEMENT_THEORY":"SGP4","COUNTRY_CODE":"US","BSTAR":"-0.00003237000000","PERIAPSIS":"546.060","TLE_LINE2":"2 47130  53.0539 253.8472 0001781  65.6861 294.4314 15.06374053 63989","OBJECT_ID":"2020-088J","ELEMENT_SET_NO":"999","RCS_SIZE":"LARGE","MEAN_MOTION_DDOT":"0.0000000000000","TIME_SYSTEM":"UTC","CENTER_NAME":"EARTH","REF_FRAME":"TEME","TLE_LINE1":"1 47130U 20088J   22018.89143780 -.00000763  00000-0 -32370-4 0  9993","REV_AT_EPOCH":"6398","EPOCH":"2022-01-18T21:23:40.225920","PERIOD":"95.594","ARG_OF_PERICENTER":"65.6861","APOAPSIS":"548.527","INCLINATION":"53.0539","MEAN_MOTION_DOT":"-0.00000763","MEAN_MOTION":"15.06374053","EPHEMERIS_TYPE":"0","OBJECT_NAME":"STARLINK-1839","OBJECT_TYPE":"PAYLOAD","DECAY_DATE":null,"MEAN_ANOMALY":"294.4314"},{"ARG_OF_PERICENTER":"273.9303","PERIOD":"90.468","APOAPSIS":"300.479","INCLINATION":"53.0504","MEAN_MOTION_DOT":"0.00371743","REV_AT_EPOCH":"6518","EPOCH":"2022-01-18T18:39:40.539456","MEAN_ANOMALY":"86.1204","DECAY_DATE":null,"MEAN_MOTION":"15.91728814","EPHEMERIS_TYPE":"0","OBJECT_NAME":"STARLINK-1840","OBJECT_TYPE":"PAYLOAD","RCS_SIZE":"LARGE","CENTER_NAME":"EARTH","MEAN_MOTION_DDOT":"0.0000635120000","TIME_SYSTEM":"UTC","REF_FRAME":"TEME","TLE_LINE1":"1 47131U 20088K   22018.77755254  .00371743  63512-4  11184-2 0  9992","GP_ID":"194154232","SITE":"AFETR","MEAN_ELEMENT_THEORY":"SGP4","COUNTRY_CODE":"US","SEMIMAJOR_AXIS":"6675.582","OBJECT_ID":"2020-088K","ELEMENT_SET_NO":"999","BSTAR":"0.00111840000000","PERIAPSIS":"294.415","TLE_LINE2":"2 47131  53.0504 168.2407 0004542 273.9303  86.1204 15.91728814 65182","RA_OF_ASC_NODE":"168.2407","ECCENTRICITY":"0.00045420","LAUNCH_DATE":"2020-11-25","FILE":"3276875","NORAD_CAT_ID":"47131","CLASSIFICATION_TYPE":"U"},{"TLE_LINE1":"1 47133U 20088M   22018.90063359  .00001372  00000-0  11103-3 0  9996","RCS_SIZE":"LARGE","REF_FRAME":"TEME","CENTER_NAME":"EARTH","MEAN_MOTION_DDOT":"0.0000000000000","TIME_SYSTEM":"UTC","MEAN_ANOMALY":"281.2135","DECAY_DATE":null,"OBJECT_NAME":"STARLINK-1843","EPHEMERIS_TYPE":"0","MEAN_MOTION":"15.06391624","OBJECT_TYPE":"PAYLOAD","APOAPSIS":"548.743","ARG_OF_PERICENTER":"78.9098","PERIOD":"95.593","MEAN_MOTION_DOT":"0.00001372","INCLINATION":"53.0470","REV_AT_EPOCH":"6426","EPOCH":"2022-01-18T21:36:54.742176","FILE":"3276875","NORAD_CAT_ID":"47133","CLASSIFICATION_TYPE":"U","RA_OF_ASC_NODE":"233.8362","LAUNCH_DATE":"2020-11-25","ECCENTRICITY":"0.00021710","OBJECT_ID":"2020-088M","ELEMENT_SET_NO":"999","BSTAR":"0.00011103000000","TLE_LINE2":"2 47133  53.0470 233.8362 0002171  78.9098 281.2135 15.06391624 64265","PERIAPSIS":"545.736","MEAN_ELEMENT_THEORY":"SGP4","GP_ID":"194154977","SITE":"AFETR","COUNTRY_CODE":"US","SEMIMAJOR_AXIS":"6925.374"},{"RA_OF_ASC_NODE":"243.9373","LAUNCH_DATE":"2020-11-25","ECCENTRICITY":"0.00015330","FILE":"3276875","NORAD_CAT_ID":"47134","CLASSIFICATION_TYPE":"U","GP_ID":"194155712","SITE":"AFETR","MEAN_ELEMENT_THEORY":"SGP4","COUNTRY_CODE":"US","SEMIMAJOR_AXIS":"6925.412","OBJECT_ID":"2020-088N","ELEMENT_SET_NO":"999","BSTAR":"-0.00007766500000","PERIAPSIS":"546.215","TLE_LINE2":"2 47134  53.0536 243.9373 0001533  79.2707 280.8454 15.06379247 64126","RCS_SIZE":"LARGE","MEAN_MOTION_DDOT":"0.0000000000000","CENTER_NAME":"EARTH","TIME_SYSTEM":"UTC","REF_FRAME":"TEME","TLE_LINE1":"1 47134U 20088N   22018.87392387 -.00001437  00000-0 -77665-4 0  9999","PERIOD":"95.593","ARG_OF_PERICENTER":"79.2707","APOAPSIS":"548.339","INCLINATION":"53.0536","MEAN_MOTION_DOT":"-0.00001437","REV_AT_EPOCH":"6412","EPOCH":"2022-01-18T20:58:27.022368","DECAY_DATE":null,"MEAN_ANOMALY":"280.8454","EPHEMERIS_TYPE":"0","MEAN_MOTION":"15.06379247","OBJECT_NAME":"STARLINK-1844","OBJECT_TYPE":"PAYLOAD"},{"FILE":"3276875","NORAD_CAT_ID":"47135","CLASSIFICATION_TYPE":"U","RA_OF_ASC_NODE":"233.8581","ECCENTRICITY":"0.00021820","LAUNCH_DATE":"2020-11-25","OBJECT_ID":"2020-088P","ELEMENT_SET_NO":"999","BSTAR":"-0.00003003400000","TLE_LINE2":"2 47135  53.0557 233.8581 0002182  65.3830 294.7386 15.06382637 64263","PERIAPSIS":"545.756","MEAN_ELEMENT_THEORY":"SGP4","SITE":"AFETR","GP_ID":"194154482","COUNTRY_CODE":"US","SEMIMAJOR_AXIS":"6925.402","TLE_LINE1":"1 47135U 20088P   22018.89327318 -.00000729  00000-0 -30034-4 0  9996","RCS_SIZE":"LARGE","REF_FRAME":"TEME","TIME_SYSTEM":"UTC","MEAN_MOTION_DDOT":"0.0000000000000","CENTER_NAME":"EARTH","MEAN_ANOMALY":"294.7386","DECAY_DATE":null,"OBJECT_NAME":"STARLINK-1845","EPHEMERIS_TYPE":"0","MEAN_MOTION":"15.06382637","OBJECT_TYPE":"PAYLOAD","APOAPSIS":"548.778","PERIOD":"95.593","ARG_OF_PERICENTER":"65.3830","MEAN_MOTION_DOT":"-0.00000729","INCLINATION":"53.0557","REV_AT_EPOCH":"6426","EPOCH":"2022-01-18T21:26:18.802752"},{"FILE":"3276875","CLASSIFICATION_TYPE":"U","NORAD_CAT_ID":"47136","LAUNCH_DATE":"2020-11-25","ECCENTRICITY":"0.00023260","RA_OF_ASC_NODE":"243.8523","ELEMENT_SET_NO":"999","OBJECT_ID":"2020-088Q","TLE_LINE2":"2 47136  53.0551 243.8523 0002326  68.8254 291.2983 15.06383968 64121","PERIAPSIS":"545.652","BSTAR":"-0.00007988800000","COUNTRY_CODE":"US","MEAN_ELEMENT_THEORY":"SGP4","SITE":"AFETR","GP_ID":"194154733","SEMIMAJOR_AXIS":"6925.398","TLE_LINE1":"1 47136U 20088Q   22018.89235061 -.00001471  00000-0 -79888-4 0  9995","REF_FRAME":"TEME","MEAN_MOTION_DDOT":"0.0000000000000","CENTER_NAME":"EARTH","TIME_SYSTEM":"UTC","RCS_SIZE":"LARGE","MEAN_ANOMALY":"291.2983","DECAY_DATE":null,"OBJECT_TYPE":"PAYLOAD","OBJECT_NAME":"STARLINK-1846","EPHEMERIS_TYPE":"0","MEAN_MOTION":"15.06383968","MEAN_MOTION_DOT":"-0.00001471","INCLINATION":"53.0551","APOAPSIS":"548.874","PERIOD":"95.593","ARG_OF_PERICENTER":"68.8254","EPOCH":"2022-01-18T21:24:59.092704","REV_AT_EPOCH":"6412"},{"EPOCH":"2022-01-18T20:59:45.656736","REV_AT_EPOCH":"6426","MEAN_MOTION_DOT":"-0.00000264","INCLINATION":"53.0537","APOAPSIS":"548.841","PERIOD":"95.593","ARG_OF_PERICENTER":"74.1046","OBJECT_TYPE":"PAYLOAD","OBJECT_NAME":"STARLINK-1849","EPHEMERIS_TYPE":"0","MEAN_MOTION":"15.06392545","DECAY_DATE":null,"MEAN_ANOMALY":"286.0198","REF_FRAME":"TEME","MEAN_MOTION_DDOT":"0.0000000000000","CENTER_NAME":"EARTH","TIME_SYSTEM":"UTC","RCS_SIZE":"LARGE","TLE_LINE1":"1 47137U 20088R   22018.87483399 -.00000264  00000-0  11972-5 0  9992","SEMIMAJOR_AXIS":"6925.371","COUNTRY_CODE":"US","MEAN_ELEMENT_THEORY":"SGP4","SITE":"AFETR","GP_ID":"194155478","TLE_LINE2":"2 47137  53.0537 233.9305 0002317  74.1046 286.0198 15.06392545 64269","PERIAPSIS":"545.632","BSTAR":"0.00000119720000","ELEMENT_SET_NO":"999","OBJECT_ID":"2020-088R","ECCENTRICITY":"0.00023170","LAUNCH_DATE":"2020-11-25","RA_OF_ASC_NODE":"233.9305","CLASSIFICATION_TYPE":"U","NORAD_CAT_ID":"47137","FILE":"3276875"},{"TLE_LINE2":"2 47138  53.0554 239.0716 0002115  75.7174 284.4050 15.06382936 64191","PERIAPSIS":"545.801","BSTAR":"-0.00010763000000","ELEMENT_SET_NO":"999","OBJECT_ID":"2020-088S","SEMIMAJOR_AXIS":"6925.401","COUNTRY_CODE":"US","MEAN_ELEMENT_THEORY":"SGP4","SITE":"AFETR","GP_ID":"194155212","CLASSIFICATION_TYPE":"U","NORAD_CAT_ID":"47138","FILE":"3276875","LAUNCH_DATE":"2020-11-25","ECCENTRICITY":"0.00021150","RA_OF_ASC_NODE":"239.0716","OBJECT_TYPE":"PAYLOAD","OBJECT_NAME":"STARLINK-1850","MEAN_MOTION":"15.06382936","EPHEMERIS_TYPE":"0","MEAN_ANOMALY":"284.4050","DECAY_DATE":null,"EPOCH":"2022-01-18T20:12:38.304000","REV_AT_EPOCH":"6419","MEAN_MOTION_DOT":"-0.00001884","INCLINATION":"53.0554","APOAPSIS":"548.731","ARG_OF_PERICENTER":"75.7174","PERIOD":"95.593","TLE_LINE1":"1 47138U 20088S   22018.84211000 -.00001884  00000-0 -10763-3 0  9993","REF_FRAME":"TEME","CENTER_NAME":"EARTH","MEAN_MOTION_DDOT":"0.0000000000000","TIME_SYSTEM":"UTC","RCS_SIZE":"LARGE"}];
